FENGYUN 1C DEB          
1 31676U 99025CCJ 17339.53878305  .00000641  00000-0  88574-3 0  9996
2 31676  98.6060  83.1279 0413632 319.3694  37.7235 13.31216526512227
